[{"OBJECT_NAME":"KINEIS-3C","OBJECT_ID":"2024-172A","EPOCH":"2026-03-09T20:22:22.104480","MEAN_MOTION":14.72318845,"ECCENTRICITY":0.00034983,"INCLINATION":98.0288,"RA_OF_ASC_NODE":159.8485,"ARG_OF_PERICENTER":99.6401,"MEAN_ANOMALY":260.5202,"EPHEMERIS_TYPE":0,"CLASSIFICATION_TYPE":"U","NORAD_CAT_ID":61220,"ELEMENT_SET_NO":999,"REV_AT_EPOCH":7845,"BSTAR":0.00048160166,"MEAN_MOTION_DOT":2.996e-5,"MEAN_MOTION_DDOT":0},{"OBJECT_NAME":"CZ-4B DEB","OBJECT_ID":"1999-057MM","EPOCH":"2026-03-08T22:26:35.664000","MEAN_MOTION":14.60942565,"ECCENTRICITY":0.00758855,"INCLINATION":98.3991,"RA_OF_ASC_NODE":124.2319,"ARG_OF_PERICENTER":333.5518,"MEAN_ANOMALY":26.1817,"EPHEMERIS_TYPE":0,"CLASSIFICATION_TYPE":"U","NORAD_CAT_ID":27492,"ELEMENT_SET_NO":999,"REV_AT_EPOCH":30878,"BSTAR":0.0011203076,"MEAN_MOTION_DOT":5.666e-5,"MEAN_MOTION_DDOT":0}]
